[{"OBJECT_NAME":"NINGXIA-1 1","OBJECT_ID":"2019-076A","EPOCH":"2026-04-26T12:28:02.856864","MEAN_MOTION":14.02031975,"ECCENTRICITY":0.0012112,"INCLINATION":45.0067,"RA_OF_ASC_NODE":50.7418,"ARG_OF_PERICENTER":274.3069,"MEAN_ANOMALY":85.6381,"EPHEMERIS_TYPE":0,"CLASSIFICATION_TYPE":"U","NORAD_CAT_ID":44779,"ELEMENT_SET_NO":999,"REV_AT_EPOCH":33060,"BSTAR":4.8211e-5,"MEAN_MOTION_DOT":-5.6e-7,"MEAN_MOTION_DDOT":0},{"OBJECT_NAME":"NINGXIA-1 5","OBJECT_ID":"2019-076E","EPOCH":"2026-04-26T12:49:29.828064","MEAN_MOTION":14.02016359,"ECCENTRICITY":0.0011875,"INCLINATION":45.0063,"RA_OF_ASC_NODE":50.0352,"ARG_OF_PERICENTER":264.1982,"MEAN_ANOMALY":95.7498,"EPHEMERIS_TYPE":0,"CLASSIFICATION_TYPE":"U","NORAD_CAT_ID":44783,"ELEMENT_SET_NO":999,"REV_AT_EPOCH":33052,"BSTAR":0.0001055,"MEAN_MOTION_DOT":3.3e-7,"MEAN_MOTION_DDOT":0},{"OBJECT_NAME":"KL-ALPHA A","OBJECT_ID":"2019-077A","EPOCH":"2026-04-26T13:00:49.055616","MEAN_MOTION":13.56037094,"ECCENTRICITY":0.0009065,"INCLINATION":88.924,"RA_OF_ASC_NODE":228.2084,"ARG_OF_PERICENTER":256.5411,"MEAN_ANOMALY":103.4733,"EPHEMERIS_TYPE":0,"CLASSIFICATION_TYPE":"U","NORAD_CAT_ID":44785,"ELEMENT_SET_NO":999,"REV_AT_EPOCH":31873,"BSTAR":2.127e-5,"MEAN_MOTION_DOT":2.7e-7,"MEAN_MOTION_DDOT":0},{"OBJECT_NAME":"CARTOSAT-3","OBJECT_ID":"2019-081A","EPOCH":"2026-04-26T12:29:05.697312","MEAN_MOTION":15.19288538,"ECCENTRICITY":0.0011193,"INCLINATION":97.4343,"RA_OF_ASC_NODE":179.2067,"ARG_OF_PERICENTER":337.8064,"MEAN_ANOMALY":22.2684,"EPHEMERIS_TYPE":0,"CLASSIFICATION_TYPE":"U","NORAD_CAT_ID":44804,"ELEMENT_SET_NO":999,"REV_AT_EPOCH":35562,"BSTAR":0.00025299,"MEAN_MOTION_DOT":5.278e-5,"MEAN_MOTION_DDOT":0},{"OBJECT_NAME":"JILIN-1 GAOFEN 2B","OBJECT_ID":"2019-086A","EPOCH":"2026-04-26T11:35:53.454048","MEAN_MOTION":15.20097113,"ECCENTRICITY":0.0015548,"INCLINATION":97.4902,"RA_OF_ASC_NODE":188.8175,"ARG_OF_PERICENTER":136.7842,"MEAN_ANOMALY":223.4616,"EPHEMERIS_TYPE":0,"CLASSIFICATION_TYPE":"U","NORAD_CAT_ID":44836,"ELEMENT_SET_NO":999,"REV_AT_EPOCH":35263,"BSTAR":0.00039136,"MEAN_MOTION_DOT":8.413e-5,"MEAN_MOTION_DDOT":0},{"OBJECT_NAME":"ANGELS","OBJECT_ID":"2019-092D","EPOCH":"2026-04-26T09:05:05.716032","MEAN_MOTION":16.25798208,"ECCENTRICITY":0.0006364,"INCLINATION":97.3919,"RA_OF_ASC_NODE":336.0364,"ARG_OF_PERICENTER":250.6461,"MEAN_ANOMALY":109.4143,"EPHEMERIS_TYPE":0,"CLASSIFICATION_TYPE":"U","NORAD_CAT_ID":44876,"ELEMENT_SET_NO":999,"REV_AT_EPOCH":35422,"BSTAR":0.00089222,"MEAN_MOTION_DOT":0.0267801,"MEAN_MOTION_DDOT":2.466e-6},{"OBJECT_NAME":"TIANQIN 1 (CAS-6)","OBJECT_ID":"2019-093A","EPOCH":"2026-04-26T11:53:57.513984","MEAN_MOTION":14.95173261,"ECCENTRICITY":0.0010505,"INCLINATION":97.7789,"RA_OF_ASC_NODE":200.722,"ARG_OF_PERICENTER":220.6342,"MEAN_ANOMALY":139.4096,"EPHEMERIS_TYPE":0,"CLASSIFICATION_TYPE":"U","NORAD_CAT_ID":44879,"ELEMENT_SET_NO":999,"REV_AT_EPOCH":34432,"BSTAR":0.00041132,"MEAN_MOTION_DOT":4.464e-5,"MEAN_MOTION_DDOT":0},{"OBJECT_NAME":"ETRSS-1","OBJECT_ID":"2019-093B","EPOCH":"2026-04-26T12:24:12.413376","MEAN_MOTION":14.95566213,"ECCENTRICITY":0.0010366,"INCLINATION":97.7814,"RA_OF_ASC_NODE":201.1581,"ARG_OF_PERICENTER":218.7053,"MEAN_ANOMALY":141.3426,"EPHEMERIS_TYPE":0,"CLASSIFICATION_TYPE":"U","NORAD_CAT_ID":44880,"ELEMENT_SET_NO":999,"REV_AT_EPOCH":34433,"BSTAR":0.00043069,"MEAN_MOTION_DOT":4.725e-5,"MEAN_MOTION_DDOT":0},{"OBJECT_NAME":"TIANYAN 01","OBJECT_ID":"2019-093C","EPOCH":"2026-04-26T11:33:37.552032","MEAN_MOTION":14.86431144,"ECCENTRICITY":0.0012139,"INCLINATION":97.7543,"RA_OF_ASC_NODE":189.9724,"ARG_OF_PERICENTER":256.183,"MEAN_ANOMALY":103.8035,"EPHEMERIS_TYPE":0,"CLASSIFICATION_TYPE":"U","NORAD_CAT_ID":44881,"ELEMENT_SET_NO":999,"REV_AT_EPOCH":34373,"BSTAR":8.0644e-5,"MEAN_MOTION_DOT":6.59e-6,"MEAN_MOTION_DDOT":0},{"OBJECT_NAME":"TIANYAN 02","OBJECT_ID":"2019-093D","EPOCH":"2026-04-26T12:31:31.442016","MEAN_MOTION":15.04560359,"ECCENTRICITY":0.0013946,"INCLINATION":97.7912,"RA_OF_ASC_NODE":210.8527,"ARG_OF_PERICENTER":191.2329,"MEAN_ANOMALY":168.8587,"EPHEMERIS_TYPE":0,"CLASSIFICATION_TYPE":"U","NORAD_CAT_ID":44882,"ELEMENT_SET_NO":999,"REV_AT_EPOCH":34484,"BSTAR":0.00061266,"MEAN_MOTION_DOT":8.551e-5,"MEAN_MOTION_DDOT":0},{"OBJECT_NAME":"CBERS 4A","OBJECT_ID":"2019-093E","EPOCH":"2026-04-26T11:49:51.540960","MEAN_MOTION":14.81619206,"ECCENTRICITY":0.0002342,"INCLINATION":97.7521,"RA_OF_ASC_NODE":185.3869,"ARG_OF_PERICENTER":33.0165,"MEAN_ANOMALY":327.1194,"EPHEMERIS_TYPE":0,"CLASSIFICATION_TYPE":"U","NORAD_CAT_ID":44883,"ELEMENT_SET_NO":999,"REV_AT_EPOCH":34342,"BSTAR":0.00019117,"MEAN_MOTION_DOT":1.452e-5,"MEAN_MOTION_DDOT":0},{"OBJECT_NAME":"WEILAI 1R","OBJECT_ID":"2019-093F","EPOCH":"2026-04-26T12:04:36.644160","MEAN_MOTION":15.00186106,"ECCENTRICITY":0.001351,"INCLINATION":97.783,"RA_OF_ASC_NODE":206.3421,"ARG_OF_PERICENTER":202.291,"MEAN_ANOMALY":157.7728,"EPHEMERIS_TYPE":0,"CLASSIFICATION_TYPE":"U","NORAD_CAT_ID":44884,"ELEMENT_SET_NO":999,"REV_AT_EPOCH":34467,"BSTAR":0.00035274,"MEAN_MOTION_DOT":4.355e-5,"MEAN_MOTION_DDOT":0},{"OBJECT_NAME":"FLORIPASAT-1","OBJECT_ID":"2019-093G","EPOCH":"2026-04-26T12:24:02.245824","MEAN_MOTION":15.03312763,"ECCENTRICITY":0.0010205,"INCLINATION":97.7898,"RA_OF_ASC_NODE":210.4004,"ARG_OF_PERICENTER":238.0122,"MEAN_ANOMALY":122.0111,"EPHEMERIS_TYPE":0,"CLASSIFICATION_TYPE":"U","NORAD_CAT_ID":44885,"ELEMENT_SET_NO":999,"REV_AT_EPOCH":34488,"BSTAR":0.00050433,"MEAN_MOTION_DOT":6.789e-5,"MEAN_MOTION_DDOT":0},{"OBJECT_NAME":"SHUNTIAN","OBJECT_ID":"2019-093H","EPOCH":"2026-04-26T12:54:48.242304","MEAN_MOTION":14.94898245,"ECCENTRICITY":0.0010403,"INCLINATION":97.7997,"RA_OF_ASC_NODE":204.9771,"ARG_OF_PERICENTER":231.48,"MEAN_ANOMALY":128.5489,"EPHEMERIS_TYPE":0,"CLASSIFICATION_TYPE":"U","NORAD_CAT_ID":44886,"ELEMENT_SET_NO":999,"REV_AT_EPOCH":34446,"BSTAR":0.00038175,"MEAN_MOTION_DOT":4.11e-5,"MEAN_MOTION_DDOT":0},{"OBJECT_NAME":"2019-093L","OBJECT_ID":"2019-093L","EPOCH":"2026-04-26T11:53:08.235744","MEAN_MOTION":14.94244703,"ECCENTRICITY":0.0011129,"INCLINATION":97.755,"RA_OF_ASC_NODE":195.3762,"ARG_OF_PERICENTER":216.696,"MEAN_ANOMALY":143.3499,"EPHEMERIS_TYPE":0,"CLASSIFICATION_TYPE":"U","NORAD_CAT_ID":44889,"ELEMENT_SET_NO":999,"REV_AT_EPOCH":34408,"BSTAR":0.00035371,"MEAN_MOTION_DOT":3.741e-5,"MEAN_MOTION_DDOT":0},{"OBJECT_NAME":"ELEKTRO-L 3","OBJECT_ID":"2019-095A","EPOCH":"2026-04-26T12:13:02.776224","MEAN_MOTION":1.00271264,"ECCENTRICITY":0.000108,"INCLINATION":0.1252,"RA_OF_ASC_NODE":75.736,"ARG_OF_PERICENTER":295.05,"MEAN_ANOMALY":102.9252,"EPHEMERIS_TYPE":0,"CLASSIFICATION_TYPE":"U","NORAD_CAT_ID":44903,"ELEMENT_SET_NO":999,"REV_AT_EPOCH":2319,"BSTAR":0,"MEAN_MOTION_DOT":-1.08e-6,"MEAN_MOTION_DDOT":0},{"OBJECT_NAME":"GONETS-M 14","OBJECT_ID":"2019-096A","EPOCH":"2026-04-26T10:46:13.244160","MEAN_MOTION":12.42868236,"ECCENTRICITY":0.0012021,"INCLINATION":82.5194,"RA_OF_ASC_NODE":116.7195,"ARG_OF_PERICENTER":266.5568,"MEAN_ANOMALY":93.4137,"EPHEMERIS_TYPE":0,"CLASSIFICATION_TYPE":"U","NORAD_CAT_ID":44905,"ELEMENT_SET_NO":999,"REV_AT_EPOCH":28725,"BSTAR":-0.00084626,"MEAN_MOTION_DOT":-1.07e-6,"MEAN_MOTION_DDOT":0}]
