NINGXIA-1 1             
1 44779U 19076A   26116.51947751 -.00000056  00000+0  48211-4 0  9990
2 44779  45.0067  50.7418 0012112 274.3069  85.6381 14.02031975330603
NINGXIA-1 5             
1 44783U 19076E   26116.53437301  .00000033  00000+0  10550-3 0  9990
2 44783  45.0063  50.0352 0011875 264.1982  95.7498 14.02016359330521
KL-ALPHA A              
1 44785U 19077A   26116.54223444  .00000027  00000+0  21270-4 0  9990
2 44785  88.9240 228.2084 0009065 256.5411 103.4733 13.56037094318732
CARTOSAT-3              
1 44804U 19081A   26116.52020483  .00005278  00000+0  25299-3 0  9990
2 44804  97.4343 179.2067 0011193 337.8064  22.2684 15.19288538355625
JILIN-1 GAOFEN 2B       
1 44836U 19086A   26116.48325757  .00008413  00000+0  39136-3 0  9996
2 44836  97.4902 188.8175 0015548 136.7842 223.4616 15.20097113352632
ANGELS                  
1 44876U 19092D   26116.37853838  .02678010  24660-5  89222-3 0  9994
2 44876  97.3919 336.0364 0006364 250.6461 109.4143 16.25798208354223
TIANQIN 1 (CAS-6)       
1 44879U 19093A   26116.49580456  .00004464  00000+0  41132-3 0  9992
2 44879  97.7789 200.7220 0010505 220.6342 139.4096 14.95173261344321
ETRSS-1                 
1 44880U 19093B   26116.51681034  .00004725  00000+0  43069-3 0  9992
2 44880  97.7814 201.1581 0010366 218.7053 141.3426 14.95566213344332
TIANYAN 01              
1 44881U 19093C   26116.48168463  .00000659  00000+0  80644-4 0  9998
2 44881  97.7543 189.9724 0012139 256.1830 103.8035 14.86431144343739
TIANYAN 02              
1 44882U 19093D   26116.52189169  .00008551  00000+0  61266-3 0  9997
2 44882  97.7912 210.8527 0013946 191.2329 168.8587 15.04560359344842
CBERS 4A                
1 44883U 19093E   26116.49295765  .00001452  00000+0  19117-3 0  9995
2 44883  97.7521 185.3869 0002342  33.0165 327.1194 14.81619206343420
WEILAI 1R               
1 44884U 19093F   26116.50320190  .00004355  00000+0  35274-3 0  9996
2 44884  97.7830 206.3421 0013510 202.2910 157.7728 15.00186106344677
FLORIPASAT-1            
1 44885U 19093G   26116.51669266  .00006789  00000+0  50433-3 0  9995
2 44885  97.7898 210.4004 0010205 238.0122 122.0111 15.03312763344882
SHUNTIAN                
1 44886U 19093H   26116.53805836  .00004110  00000+0  38175-3 0  9998
2 44886  97.7997 204.9771 0010403 231.4800 128.5489 14.94898245344468
2019-093L               
1 44889U 19093L   26116.49523421  .00003741  00000+0  35371-3 0  9997
2 44889  97.7550 195.3762 0011129 216.6960 143.3499 14.94244703344085
ELEKTRO-L 3             
1 44903U 19095A   26116.50905991 -.00000108  00000+0  00000+0 0  9996
2 44903   0.1252  75.7360 0001080 295.0500 102.9252  1.00271264 23199
GONETS-M 14             
1 44905U 19096A   26116.44876440 -.00000107  00000+0 -84626-3 0  9998
2 44905  82.5194 116.7195 0012021 266.5568  93.4137 12.42868236287250
